{
  "type": "FeatureCollection",
  "features": [
    {
      "type": "Feature",
      "properties": {
        "norad_id": 66492,
        "name": "STARLINK-35673",
        "group": "last-30-days",
        "lat": 40.87703711054832,
        "lon": -154.6742554774774,
        "alt_km": 430.10864213855984,
        "timestamp": "2025-12-10T16:57:10.415408+00:00",
        "meta_object_name": "STARLINK-35673",
        "meta_object_id": "2025-263H",
        "meta_epoch": "2025-12-10T12:00:02.998944",
        "meta_mean_motion": 15.44526203,
        "meta_eccentricity": 0.0001608,
        "meta_inclination": 43.0001,
        "meta_ra_of_asc_node": 138.2695,
        "meta_arg_of_pericenter": 264.2351,
        "meta_mean_anomaly": 101.2084,
        "meta_ephemeris_type": 0,
        "meta_classification_type": "U",
        "meta_norad_cat_id": 66492,
        "meta_element_set_no": 999,
        "meta_rev_at_epoch": 527,
        "meta_bstar": -0.048806,
        "meta_mean_motion_dot": -0.02060064,
        "meta_mean_motion_ddot": 0,
        "tle_line1": "1 66492U 25263H   25344.50003471 -.02060064  00000+0 -48806-1 0  9999",
        "tle_line2": "2 66492  43.0001 138.2695 0001608 264.2351 101.2084 15.44526203  5271"
      },
      "geometry": {
        "type": "Point",
        "coordinates": [
          -154.6742554774774,
          40.87703711054832
        ]
      }
    },
    {
      "type": "Feature",
      "properties": {
        "norad_id": 66493,
        "name": "STARLINK-35597",
        "group": "last-30-days",
        "lat": 42.76108173767431,
        "lon": -125.89248112909067,
        "alt_km": 409.23900647499795,
        "timestamp": "2025-12-10T16:57:10.415419+00:00",
        "meta_object_name": "STARLINK-35597",
        "meta_object_id": "2025-263J",
        "meta_epoch": "2025-12-10T12:00:02.998944",
        "meta_mean_motion": 15.50608734,
        "meta_eccentricity": 0.0001486,
        "meta_inclination": 43.0006,
        "meta_ra_of_asc_node": 138.2282,
        "meta_arg_of_pericenter": 259.7511,
        "meta_mean_anomaly": 122.2697,
        "meta_ephemeris_type": 0,
        "meta_classification_type": "U",
        "meta_norad_cat_id": 66493,
        "meta_element_set_no": 999,
        "meta_rev_at_epoch": 527,
        "meta_bstar": -0.0015289,
        "meta_mean_motion_dot": -0.00089116,
        "meta_mean_motion_ddot": 0,
        "tle_line1": "1 66493U 25263J   25344.50003471 -.00089116  00000+0 -15289-2 0  9997",
        "tle_line2": "2 66493  43.0006 138.2282 0001486 259.7511 122.2697 15.50608734  5270"
      },
      "geometry": {
        "type": "Point",
        "coordinates": [
          -125.89248112909067,
          42.76108173767431
        ]
      }
    },
    {
      "type": "Feature",
      "properties": {
        "norad_id": 66494,
        "name": "STARLINK-35689",
        "group": "last-30-days",
        "lat": 42.97746313248993,
        "lon": -133.73546794437206,
        "alt_km": 409.2654902328086,
        "timestamp": "2025-12-10T16:57:10.415431+00:00",
        "meta_object_name": "STARLINK-35689",
        "meta_object_id": "2025-263K",
        "meta_epoch": "2025-12-10T12:00:02.998944",
        "meta_mean_motion": 15.50592631,
        "meta_eccentricity": 0.0001537,
        "meta_inclination": 43.0005,
        "meta_ra_of_asc_node": 138.2436,
        "meta_arg_of_pericenter": 257.3075,
        "meta_mean_anomaly": 118.9666,
        "meta_ephemeris_type": 0,
        "meta_classification_type": "U",
        "meta_norad_cat_id": 66494,
        "meta_element_set_no": 999,
        "meta_rev_at_epoch": 527,
        "meta_bstar": -0.0010421,
        "meta_mean_motion_dot": -0.00061033,
        "meta_mean_motion_ddot": 0,
        "tle_line1": "1 66494U 25263K   25344.50003471 -.00061033  00000+0 -10421-2 0  9999",
        "tle_line2": "2 66494  43.0005 138.2436 0001537 257.3075 118.9666 15.50592631  5273"
      },
      "geometry": {
        "type": "Point",
        "coordinates": [
          -133.73546794437206,
          42.97746313248993
        ]
      }
    },
    {
      "type": "Feature",
      "properties": {
        "norad_id": 66495,
        "name": "STARLINK-35832",
        "group": "last-30-days",
        "lat": 42.570059198163555,
        "lon": -123.29753074017563,
        "alt_km": 409.30599496582545,
        "timestamp": "2025-12-10T16:57:10.415441+00:00",
        "meta_object_name": "STARLINK-35832",
        "meta_object_id": "2025-263L",
        "meta_epoch": "2025-12-10T12:00:02.998944",
        "meta_mean_motion": 15.5061096,
        "meta_eccentricity": 0.0001575,
        "meta_inclination": 43.0006,
        "meta_ra_of_asc_node": 138.2235,
        "meta_arg_of_pericenter": 258.3559,
        "meta_mean_anomaly": 125.5832,
        "meta_ephemeris_type": 0,
        "meta_classification_type": "U",
        "meta_norad_cat_id": 66495,
        "meta_element_set_no": 999,
        "meta_rev_at_epoch": 527,
        "meta_bstar": -0.0015659,
        "meta_mean_motion_dot": -0.00091247,
        "meta_mean_motion_ddot": 0,
        "tle_line1": "1 66495U 25263L   25344.50003471 -.00091247  00000+0 -15659-2 0  9998",
        "tle_line2": "2 66495  43.0006 138.2235 0001575 258.3559 125.5832 15.50610960  5277"
      },
      "geometry": {
        "type": "Point",
        "coordinates": [
          -123.29753074017563,
          42.570059198163555
        ]
      }
    },
    {
      "type": "Feature",
      "properties": {
        "norad_id": 66496,
        "name": "STARLINK-35909",
        "group": "last-30-days",
        "lat": 42.32093038508783,
        "lon": -120.72285569940898,
        "alt_km": 409.36521276553685,
        "timestamp": "2025-12-10T16:57:10.415451+00:00",
        "meta_object_name": "STARLINK-35909",
        "meta_object_id": "2025-263M",
        "meta_epoch": "2025-12-10T12:00:02.998944",
        "meta_mean_motion": 15.5060857,
        "meta_eccentricity": 0.0001582,
        "meta_inclination": 43.0007,
        "meta_ra_of_asc_node": 138.2183,
        "meta_arg_of_pericenter": 262.4959,
        "meta_mean_anomaly": 123.3613,
        "meta_ephemeris_type": 0,
        "meta_classification_type": "U",
        "meta_norad_cat_id": 66496,
        "meta_element_set_no": 999,
        "meta_rev_at_epoch": 527,
        "meta_bstar": -0.0015357,
        "meta_mean_motion_dot": -0.00089506,
        "meta_mean_motion_ddot": 0,
        "tle_line1": "1 66496U 25263M   25344.50003471 -.00089506  00000+0 -15357-2 0  9999",
        "tle_line2": "2 66496  43.0007 138.2183 0001582 262.4959 123.3613 15.50608570  5276"
      },
      "geometry": {
        "type": "Point",
        "coordinates": [
          -120.72285569940898,
          42.32093038508783
        ]
      }
    },
    {
      "type": "Feature",
      "properties": {
        "norad_id": 66497,
        "name": "STARLINK-35899",
        "group": "last-30-days",
        "lat": 42.015297817667665,
        "lon": -118.1782938212555,
        "alt_km": 409.4345379480119,
        "timestamp": "2025-12-10T16:57:10.415461+00:00",
        "meta_object_name": "STARLINK-35899",
        "meta_object_id": "2025-263N",
        "meta_epoch": "2025-12-10T12:00:02.998944",
        "meta_mean_motion": 15.50590959,
        "meta_eccentricity": 0.0001593,
        "meta_inclination": 43.0006,
        "meta_ra_of_asc_node": 138.2135,
        "meta_arg_of_pericenter": 264.195,
        "meta_mean_anomaly": 123.5823,
        "meta_ephemeris_type": 0,
        "meta_classification_type": "U",
        "meta_norad_cat_id": 66497,
        "meta_element_set_no": 999,
        "meta_rev_at_epoch": 527,
        "meta_bstar": -0.0010384,
        "meta_mean_motion_dot": -0.00060813,
        "meta_mean_motion_ddot": 0,
        "tle_line1": "1 66497U 25263N   25344.50003471 -.00060813  00000+0 -10384-2 0  9995",
        "tle_line2": "2 66497  43.0006 138.2135 0001593 264.1950 123.5823 15.50590959  5271"
      },
      "geometry": {
        "type": "Point",
        "coordinates": [
          -118.1782938212555,
          42.015297817667665
        ]
      }
    },
    {
      "type": "Feature",
      "properties": {
        "norad_id": 66498,
        "name": "STARLINK-35907",
        "group": "last-30-days",
        "lat": 42.800672078635245,
        "lon": -139.37014740664358,
        "alt_km": 428.61061091628744,
        "timestamp": "2025-12-10T16:57:10.415473+00:00",
        "meta_object_name": "STARLINK-35907",
        "meta_object_id": "2025-263P",
        "meta_epoch": "2025-12-10T12:00:02.998944",
        "meta_mean_motion": 15.44894292,
        "meta_eccentricity": 0.000138,
        "meta_inclination": 43.0004,
        "meta_ra_of_asc_node": 138.24,
        "meta_arg_of_pericenter": 264.0585,
        "meta_mean_anomaly": 112.6694,
        "meta_ephemeris_type": 0,
        "meta_classification_type": "U",
        "meta_norad_cat_id": 66498,
        "meta_element_set_no": 999,
        "meta_rev_at_epoch": 527,
        "meta_bstar": -0.048452,
        "meta_mean_motion_dot": -0.02069857,
        "meta_mean_motion_ddot": 0,
        "tle_line1": "1 66498U 25263P   25344.50003471 -.02069857  00000+0 -48452-1 0  9991",
        "tle_line2": "2 66498  43.0004 138.2400 0001380 264.0585 112.6694 15.44894292  5277"
      },
      "geometry": {
        "type": "Point",
        "coordinates": [
          -139.37014740664358,
          42.800672078635245
        ]
      }
    }
  ]
}